start=new Date('2023-06-03T00:00:00.000Z').valueOf();
sats=[{"FILE":"3923570","GP_ID":"233073109","TLE_LINE1":"1 51960U 22025E   23153.68210463 -.00007104  00000-0 -47897-3 0  9998","ECCENTRICITY":"0.00012550","EPOCH":"2023-06-02T16:22:13.840032","PERIOD":"95.694","LAUNCH_DATE":"2022-03-09","INCLINATION":"53.0864","TIME_SYSTEM":"UTC","EPHEMERIS_TYPE":"0","REF_FRAME":"TEME","OBJECT_NAME":"STARLINK-3691","MEAN_MOTION_DOT":"-0.00007104","MEAN_MOTION":"15.04802233","CLASSIFICATION_TYPE":"U","BSTAR":"-0.00047897000000","PERIAPSIS":"551.245","ARG_OF_PERICENTER":"94.1923","APOAPSIS":"552.985","TLE_LINE2":"2 51960  53.0864 249.6646 0001255  94.1923 265.9209 15.04802233 68530","REV_AT_EPOCH":"6853","CENTER_NAME":"EARTH","DECAY_DATE":null,"SEMIMAJOR_AXIS":"6930.250","RCS_SIZE":"LARGE","MEAN_ELEMENT_THEORY":"SGP4","SITE":"AFETR","OBJECT_ID":"2022-025E","COUNTRY_CODE":"US","NORAD_CAT_ID":"51960","RA_OF_ASC_NODE":"249.6646","OBJECT_TYPE":"PAYLOAD","ELEMENT_SET_NO":"999","MEAN_MOTION_DDOT":"0.0000000000000","MEAN_ANOMALY":"265.9209"},{"CLASSIFICATION_TYPE":"U","BSTAR":"-0.00009005600000","PERIAPSIS":"541.315","TIME_SYSTEM":"UTC","OBJECT_NAME":"STARLINK-3689","REF_FRAME":"TEME","MEAN_MOTION_DOT":"-0.00001688","EPHEMERIS_TYPE":"0","MEAN_MOTION":"15.08038473","PERIOD":"95.488","EPOCH":"2023-06-02T13:39:50.747904","LAUNCH_DATE":"2022-03-09","INCLINATION":"53.0747","GP_ID":"233048201","FILE":"3923536","ECCENTRICITY":"0.00012740","TLE_LINE1":"1 51961U 22025F   23153.56933736 -.00001688  00000-0 -90056-4 0  9998","ELEMENT_SET_NO":"999","OBJECT_TYPE":"PAYLOAD","MEAN_MOTION_DDOT":"0.0000000000000","MEAN_ANOMALY":"263.5414","MEAN_ELEMENT_THEORY":"SGP4","OBJECT_ID":"2022-025F","SITE":"AFETR","COUNTRY_CODE":"US","RA_OF_ASC_NODE":"248.1038","NORAD_CAT_ID":"51961","REV_AT_EPOCH":"6965","SEMIMAJOR_AXIS":"6920.331","CENTER_NAME":"EARTH","DECAY_DATE":null,"RCS_SIZE":"LARGE","ARG_OF_PERICENTER":"96.5721","TLE_LINE2":"2 51961  53.0747 248.1038 0001274  96.5721 263.5414 15.08038473 69650","APOAPSIS":"543.078"},{"COUNTRY_CODE":"US","NORAD_CAT_ID":"51962","RA_OF_ASC_NODE":"247.5363","MEAN_ELEMENT_THEORY":"SGP4","SITE":"AFETR","OBJECT_ID":"2022-025G","MEAN_MOTION_DDOT":"0.0000000000000","MEAN_ANOMALY":"316.4478","OBJECT_TYPE":"PAYLOAD","ELEMENT_SET_NO":"999","APOAPSIS":"542.693","TLE_LINE2":"2 51962  53.0749 247.5363 0000666  43.6565 316.4478 15.08026836 68567","ARG_OF_PERICENTER":"43.6565","RCS_SIZE":"LARGE","REV_AT_EPOCH":"6856","CENTER_NAME":"EARTH","DECAY_DATE":null,"SEMIMAJOR_AXIS":"6920.367","MEAN_MOTION":"15.08026836","TIME_SYSTEM":"UTC","EPHEMERIS_TYPE":"0","REF_FRAME":"TEME","MEAN_MOTION_DOT":"0.00000989","OBJECT_NAME":"STARLINK-3697","PERIAPSIS":"541.771","CLASSIFICATION_TYPE":"U","BSTAR":"0.00008185100000","FILE":"3923570","GP_ID":"233072108","TLE_LINE1":"1 51962U 22025G   23153.68166403  .00000989  00000-0  81851-4 0  9995","ECCENTRICITY":"0.00006660","LAUNCH_DATE":"2022-03-09","INCLINATION":"53.0749","EPOCH":"2023-06-02T16:21:35.772192","PERIOD":"95.489"},{"MEAN_MOTION_DOT":"0.00000839","OBJECT_NAME":"STARLINK-3675","REF_FRAME":"TEME","EPHEMERIS_TYPE":"0","TIME_SYSTEM":"UTC","MEAN_MOTION":"15.08025164","BSTAR":"0.00007227900000","CLASSIFICATION_TYPE":"U","PERIAPSIS":"541.295","ECCENTRICITY":"0.00013620","TLE_LINE1":"1 51963U 22025H   23153.49859058  .00000839  00000-0  72279-4 0  9998","FILE":"3923342","GP_ID":"233040521","PERIOD":"95.489","EPOCH":"2023-06-02T11:57:58.226112","INCLINATION":"53.0805","LAUNCH_DATE":"2022-03-09","OBJECT_ID":"2022-025H","SITE":"AFETR","MEAN_ELEMENT_THEORY":"SGP4","RA_OF_ASC_NODE":"248.4210","NORAD_CAT_ID":"51963","COUNTRY_CODE":"US","ELEMENT_SET_NO":"999","OBJECT_TYPE":"PAYLOAD","MEAN_ANOMALY":"257.7522","MEAN_MOTION_DDOT":"0.0000000000000","ARG_OF_PERICENTER":"102.3620","TLE_LINE2":"2 51963  53.0805 248.4210 0001362 102.3620 257.7522 15.08025164 68538","APOAPSIS":"543.180","SEMIMAJOR_AXIS":"6920.372","DECAY_DATE":null,"CENTER_NAME":"EARTH","REV_AT_EPOCH":"6853","RCS_SIZE":"LARGE"},{"INCLINATION":"53.0783","LAUNCH_DATE":"2022-03-09","PERIOD":"95.484","EPOCH":"2023-06-02T12:58:49.276704","ECCENTRICITY":"0.00010000","TLE_LINE1":"1 51964U 22025J   23153.54084811 -.00016670  00000-0 -10526-2 0  9999","GP_ID":"233039770","FILE":"3923342","PERIAPSIS":"541.290","BSTAR":"-0.00105260000000","CLASSIFICATION_TYPE":"U","MEAN_MOTION":"15.08108598","OBJECT_NAME":"STARLINK-3690","REF_FRAME":"TEME","MEAN_MOTION_DOT":"-0.00016670","EPHEMERIS_TYPE":"0","TIME_SYSTEM":"UTC","RCS_SIZE":"LARGE","SEMIMAJOR_AXIS":"6920.117","DECAY_DATE":null,"CENTER_NAME":"EARTH","REV_AT_EPOCH":"6854","TLE_LINE2":"2 51964  53.0783 248.1946 0001000  93.4553 266.6552 15.08108598 68547","APOAPSIS":"542.674","ARG_OF_PERICENTER":"93.4553","MEAN_ANOMALY":"266.6552","MEAN_MOTION_DDOT":"0.0000000000000","ELEMENT_SET_NO":"999","OBJECT_TYPE":"PAYLOAD","RA_OF_ASC_NODE":"248.1946","NORAD_CAT_ID":"51964","COUNTRY_CODE":"US","OBJECT_ID":"2022-025J","SITE":"AFETR","MEAN_ELEMENT_THEORY":"SGP4"},{"COUNTRY_CODE":"US","RA_OF_ASC_NODE":"250.2719","NORAD_CAT_ID":"51965","MEAN_ELEMENT_THEORY":"SGP4","OBJECT_ID":"2022-025K","SITE":"AFETR","MEAN_MOTION_DDOT":"0.0000000000000","MEAN_ANOMALY":"233.7993","ELEMENT_SET_NO":"999","OBJECT_TYPE":"PAYLOAD","TLE_LINE2":"2 51965  53.0870 250.2719 0000891 126.3078 233.7993 15.04769424 68510","APOAPSIS":"552.833","ARG_OF_PERICENTER":"126.3078","RCS_SIZE":"LARGE","REV_AT_EPOCH":"6851","SEMIMAJOR_AXIS":"6930.351","DECAY_DATE":null,"CENTER_NAME":"EARTH","MEAN_MOTION":"15.04769424","TIME_SYSTEM":"UTC","OBJECT_NAME":"STARLINK-3696","REF_FRAME":"TEME","MEAN_MOTION_DOT":"0.00000446","EPHEMERIS_TYPE":"0","PERIAPSIS":"551.598","CLASSIFICATION_TYPE":"U","BSTAR":"0.00005069300000","FILE":"3923342","GP_ID":"233039520","ECCENTRICITY":"0.00008910","TLE_LINE1":"1 51965U 22025K   23153.54624130  .00000446  00000-0  50693-4 0  9997","LAUNCH_DATE":"2022-03-09","INCLINATION":"53.0870","PERIOD":"95.696","EPOCH":"2023-06-02T13:06:35.248320"},{"PERIOD":"95.646","EPOCH":"2023-06-02T16:27:59.514336","INCLINATION":"53.0791","LAUNCH_DATE":"2022-03-09","ECCENTRICITY":"0.00012590","TLE_LINE1":"1 51966U 22025L   23153.68610549  .00008073  00000-0  57309-3 0  9996","GP_ID":"233071608","FILE":"3923570","BSTAR":"0.00057309000000","CLASSIFICATION_TYPE":"U","PERIAPSIS":"548.957","MEAN_MOTION_DOT":"0.00008073","REF_FRAME":"TEME","OBJECT_NAME":"STARLINK-3699","EPHEMERIS_TYPE":"0","TIME_SYSTEM":"UTC","MEAN_MOTION":"15.05546977","SEMIMAJOR_AXIS":"6927.964","DECAY_DATE":null,"CENTER_NAME":"EARTH","REV_AT_EPOCH":"6854","RCS_SIZE":"LARGE","ARG_OF_PERICENTER":"73.9650","TLE_LINE2":"2 51966  53.0791 249.1664 0001259  73.9650 286.1478 15.05546977 68541","APOAPSIS":"550.701","ELEMENT_SET_NO":"999","OBJECT_TYPE":"PAYLOAD","MEAN_ANOMALY":"286.1478","MEAN_MOTION_DDOT":"0.0000000000000","OBJECT_ID":"2022-025L","SITE":"AFETR","MEAN_ELEMENT_THEORY":"SGP4","RA_OF_ASC_NODE":"249.1664","NORAD_CAT_ID":"51966","COUNTRY_CODE":"US"},{"COUNTRY_CODE":"US","NORAD_CAT_ID":"51968","RA_OF_ASC_NODE":"248.2411","MEAN_ELEMENT_THEORY":"SGP4","SITE":"AFETR","OBJECT_ID":"2022-025N","MEAN_MOTION_DDOT":"0.0000000000000","MEAN_ANOMALY":"244.2264","OBJECT_TYPE":"PAYLOAD","ELEMENT_SET_NO":"999","APOAPSIS":"542.936","TLE_LINE2":"2 51968  53.0758 248.2411 0001041 115.8834 244.2264 15.08032204 69641","ARG_OF_PERICENTER":"115.8834","RCS_SIZE":"LARGE","REV_AT_EPOCH":"6964","CENTER_NAME":"EARTH","DECAY_DATE":null,"SEMIMAJOR_AXIS":"6920.351","MEAN_MOTION":"15.08032204","TIME_SYSTEM":"UTC","EPHEMERIS_TYPE":"0","REF_FRAME":"TEME","MEAN_MOTION_DOT":"0.00000065","OBJECT_NAME":"STARLINK-3681","PERIAPSIS":"541.495","CLASSIFICATION_TYPE":"U","BSTAR":"0.00002252300000","FILE":"3923188","GP_ID":"233012302","TLE_LINE1":"1 51968U 22025N   23153.53013420  .00000065  00000-0  22523-4 0  9991","ECCENTRICITY":"0.00010410","LAUNCH_DATE":"2022-03-09","INCLINATION":"53.0758","EPOCH":"2023-06-02T12:43:23.594880","PERIOD":"95.489"},{"GP_ID":"233039271","FILE":"3923342","TLE_LINE1":"1 51969U 22025P   23153.49824226  .00000570  00000-0  54993-4 0  9998","ECCENTRICITY":"0.00010520","EPOCH":"2023-06-02T11:57:28.131264","PERIOD":"95.489","LAUNCH_DATE":"2022-03-09","INCLINATION":"53.0516","TIME_SYSTEM":"UTC","EPHEMERIS_TYPE":"0","REF_FRAME":"TEME","OBJECT_NAME":"STARLINK-3680","MEAN_MOTION_DOT":"0.00000570","MEAN_MOTION":"15.08022030","CLASSIFICATION_TYPE":"U","BSTAR":"0.00005499300000","PERIAPSIS":"541.519","ARG_OF_PERICENTER":"94.2510","APOAPSIS":"542.975","TLE_LINE2":"2 51969  53.0516 247.9355 0001052  94.2510 265.8600 15.08022030 68536","REV_AT_EPOCH":"6853","CENTER_NAME":"EARTH","DECAY_DATE":null,"SEMIMAJOR_AXIS":"6920.382","RCS_SIZE":"LARGE","MEAN_ELEMENT_THEORY":"SGP4","SITE":"AFETR","OBJECT_ID":"2022-025P","COUNTRY_CODE":"US","NORAD_CAT_ID":"51969","RA_OF_ASC_NODE":"247.9355","OBJECT_TYPE":"PAYLOAD","ELEMENT_SET_NO":"999","MEAN_MOTION_DDOT":"0.0000000000000","MEAN_ANOMALY":"265.8600"},{"MEAN_MOTION":"15.05584411","TIME_SYSTEM":"UTC","REF_FRAME":"TEME","OBJECT_NAME":"STARLINK-3677","MEAN_MOTION_DOT":"0.00000482","EPHEMERIS_TYPE":"0","PERIAPSIS":"549.059","CLASSIFICATION_TYPE":"U","BSTAR":"0.00005222000000","FILE":"3923570","GP_ID":"233073358","ECCENTRICITY":"0.00009460","TLE_LINE1":"1 51970U 22025Q   23153.67538006  .00000482  00000-0  52220-4 0  9991","LAUNCH_DATE":"2022-03-09","INCLINATION":"53.0799","PERIOD":"95.644","EPOCH":"2023-06-02T16:12:32.837184","COUNTRY_CODE":"US","RA_OF_ASC_NODE":"249.2148","NORAD_CAT_ID":"51970","MEAN_ELEMENT_THEORY":"SGP4","OBJECT_ID":"2022-025Q","SITE":"AFETR","MEAN_MOTION_DDOT":"0.0000000000000","MEAN_ANOMALY":"255.7126","ELEMENT_SET_NO":"999","OBJECT_TYPE":"PAYLOAD","TLE_LINE2":"2 51970  53.0799 249.2148 0000946 104.3968 255.7126 15.05584411 68542","APOAPSIS":"550.370","ARG_OF_PERICENTER":"104.3968","RCS_SIZE":"LARGE","REV_AT_EPOCH":"6854","SEMIMAJOR_AXIS":"6927.849","DECAY_DATE":null,"CENTER_NAME":"EARTH"}];
